[{"OBJECT_NAME":"STARLINK-35510","OBJECT_ID":"2025-257T","EPOCH":"2026-03-09T17:29:00.309984","MEAN_MOTION":15.30208609,"ECCENTRICITY":7.038e-5,"INCLINATION":53.1604,"RA_OF_ASC_NODE":216.5401,"ARG_OF_PERICENTER":70.6158,"MEAN_ANOMALY":289.4918,"EPHEMERIS_TYPE":0,"CLASSIFICATION_TYPE":"U","NORAD_CAT_ID":66397,"ELEMENT_SET_NO":999,"REV_AT_EPOCH":1974,"BSTAR":0.0011929486,"MEAN_MOTION_DOT":0.00035149,"MEAN_MOTION_DDOT":0},{"OBJECT_NAME":"KUIPER-00213","OBJECT_ID":"2026-030P","EPOCH":"2026-03-09T22:00:01.999584","MEAN_MOTION":15.32626943,"ECCENTRICITY":0.00152813,"INCLINATION":51.8816,"RA_OF_ASC_NODE":218.5142,"ARG_OF_PERICENTER":64.2462,"MEAN_ANOMALY":206.8369,"EPHEMERIS_TYPE":0,"CLASSIFICATION_TYPE":"U","NORAD_CAT_ID":67777,"ELEMENT_SET_NO":999,"REV_AT_EPOCH":502,"BSTAR":0.0016072376,"MEAN_MOTION_DOT":0.00051551,"MEAN_MOTION_DDOT":0}]
